start=new Date('2023-05-06T00:00:00.000Z').valueOf();
sats=[{"MEAN_ELEMENT_THEORY":"SGP4","REV_AT_EPOCH":"1443","INCLINATION":"43.0005","OBJECT_TYPE":"PAYLOAD","TIME_SYSTEM":"UTC","ARG_OF_PERICENTER":"283.8548","PERIOD":"95.838","GP_ID":"231285455","SITE":"AFETR","MEAN_MOTION_DOT":"-0.00000074","BSTAR":"0.00000962420000","MEAN_MOTION_DDOT":"0.0000000000000","EPOCH":"2023-05-05T11:42:50.694336","RCS_SIZE":"LARGE","FILE":"3901574","SEMIMAJOR_AXIS":"6937.238","TLE_LINE2":"2 55470  43.0005 212.4974 0001383 283.8548  76.2140 15.02528974 14432","MEAN_MOTION":"15.02528974","TLE_LINE1":"1 55470U 23015X   23125.48808674 -.00000074  00000-0  96242-5 0  9990","ECCENTRICITY":"0.00013830","OBJECT_NAME":"STARLINK-5708","COUNTRY_CODE":"US","LAUNCH_DATE":"2023-02-02","REF_FRAME":"TEME","DECAY_DATE":null,"PERIAPSIS":"558.144","CENTER_NAME":"EARTH","EPHEMERIS_TYPE":"0","OBJECT_ID":"2023-015X","NORAD_CAT_ID":"55470","CLASSIFICATION_TYPE":"U","MEAN_ANOMALY":"76.2140","APOAPSIS":"560.063","ELEMENT_SET_NO":"999","RA_OF_ASC_NODE":"212.4974"},{"ELEMENT_SET_NO":"999","RA_OF_ASC_NODE":"217.1689","APOAPSIS":"559.946","MEAN_ANOMALY":"66.6345","CLASSIFICATION_TYPE":"U","OBJECT_ID":"2023-015Y","NORAD_CAT_ID":"55471","EPHEMERIS_TYPE":"0","CENTER_NAME":"EARTH","PERIAPSIS":"558.252","DECAY_DATE":null,"REF_FRAME":"TEME","LAUNCH_DATE":"2023-02-02","COUNTRY_CODE":"US","OBJECT_NAME":"STARLINK-5711","ECCENTRICITY":"0.00012210","MEAN_MOTION":"15.02530286","TLE_LINE2":"2 55471  42.9997 217.1689 0001221 293.4369  66.6345 15.02530286 14300","TLE_LINE1":"1 55471U 23015Y   23124.62054213  .00004000  00000-0  31105-3 0  9995","FILE":"3901186","SEMIMAJOR_AXIS":"6937.234","RCS_SIZE":"LARGE","EPOCH":"2023-05-04T14:53:34.840032","MEAN_MOTION_DDOT":"0.0000000000000","SITE":"AFETR","BSTAR":"0.00031105000000","MEAN_MOTION_DOT":"0.00004000","GP_ID":"231275334","PERIOD":"95.838","ARG_OF_PERICENTER":"293.4369","TIME_SYSTEM":"UTC","OBJECT_TYPE":"PAYLOAD","INCLINATION":"42.9997","MEAN_ELEMENT_THEORY":"SGP4","REV_AT_EPOCH":"1430"},{"PERIOD":"95.181","GP_ID":"231285628","TLE_LINE2":"2 55472  42.9974 200.1970 0001344 281.7813  81.0837 15.12900379 14583","TLE_LINE1":"1 55472U 23015Z   23125.58334491 -.00883519  00000-0 -53130-1 0  9993","MEAN_MOTION":"15.12900379","ECCENTRICITY":"0.00013440","SITE":"AFETR","MEAN_MOTION_DOT":"-0.00883519","BSTAR":"-0.05313000000000","MEAN_MOTION_DDOT":"0.0000000000000","EPOCH":"2023-05-05T14:00:01.000224","FILE":"3901575","RCS_SIZE":"LARGE","SEMIMAJOR_AXIS":"6905.497","INCLINATION":"42.9974","OBJECT_TYPE":"PAYLOAD","MEAN_ELEMENT_THEORY":"SGP4","REV_AT_EPOCH":"1458","TIME_SYSTEM":"UTC","ARG_OF_PERICENTER":"281.7813","NORAD_CAT_ID":"55472","OBJECT_ID":"2023-015Z","MEAN_ANOMALY":"81.0837","CLASSIFICATION_TYPE":"U","APOAPSIS":"528.290","CENTER_NAME":"EARTH","EPHEMERIS_TYPE":"0","ELEMENT_SET_NO":"999","RA_OF_ASC_NODE":"200.1970","LAUNCH_DATE":"2023-02-02","REF_FRAME":"TEME","DECAY_DATE":null,"OBJECT_NAME":"STARLINK-5705","COUNTRY_CODE":"US","PERIAPSIS":"526.434"},{"RA_OF_ASC_NODE":"213.8867","ELEMENT_SET_NO":"999","EPHEMERIS_TYPE":"0","CENTER_NAME":"EARTH","APOAPSIS":"560.105","CLASSIFICATION_TYPE":"U","MEAN_ANOMALY":"80.5213","NORAD_CAT_ID":"55473","OBJECT_ID":"2023-015AA","PERIAPSIS":"558.119","COUNTRY_CODE":"US","OBJECT_NAME":"STARLINK-5687","DECAY_DATE":null,"REF_FRAME":"TEME","LAUNCH_DATE":"2023-02-02","RCS_SIZE":"LARGE","FILE":"3901246","SEMIMAJOR_AXIS":"6937.247","MEAN_MOTION_DDOT":"0.0000000000000","EPOCH":"2023-05-05T05:08:44.574720","BSTAR":"-0.00000018447000","SITE":"AFETR","MEAN_MOTION_DOT":"-0.00000206","ECCENTRICITY":"0.00014310","TLE_LINE2":"2 55473  43.0011 213.8867 0001431 279.5468  80.5213 15.02526088 14393","TLE_LINE1":"1 55473U 23015AA  23125.21440480 -.00000206  00000-0 -18447-6 0  9991","MEAN_MOTION":"15.02526088","GP_ID":"231277711","PERIOD":"95.839","ARG_OF_PERICENTER":"279.5468","TIME_SYSTEM":"UTC","REV_AT_EPOCH":"1439","MEAN_ELEMENT_THEORY":"SGP4","OBJECT_TYPE":"PAYLOAD","INCLINATION":"43.0011"},{"OBJECT_ID":"2023-015AB","NORAD_CAT_ID":"55474","CLASSIFICATION_TYPE":"U","MEAN_ANOMALY":"79.7598","APOAPSIS":"560.152","CENTER_NAME":"EARTH","EPHEMERIS_TYPE":"0","RA_OF_ASC_NODE":"226.4517","ELEMENT_SET_NO":"999","LAUNCH_DATE":"2023-02-02","REF_FRAME":"TEME","DECAY_DATE":null,"OBJECT_NAME":"STARLINK-5689","COUNTRY_CODE":"US","PERIAPSIS":"558.037","PERIOD":"95.838","GP_ID":"231285625","TLE_LINE2":"2 55474  43.0013 226.4517 0001525 280.3072  79.7598 15.02531800 14263","MEAN_MOTION":"15.02531800","TLE_LINE1":"1 55474U 23015AB  23125.38705866  .00000999  00000-0  89026-4 0  9998","ECCENTRICITY":"0.00015250","MEAN_MOTION_DOT":"0.00000999","SITE":"AFETR","BSTAR":"0.00008902600000","EPOCH":"2023-05-05T09:17:21.868224","MEAN_MOTION_DDOT":"0.0000000000000","FILE":"3901575","SEMIMAJOR_AXIS":"6937.229","RCS_SIZE":"LARGE","INCLINATION":"43.0013","OBJECT_TYPE":"PAYLOAD","REV_AT_EPOCH":"1426","MEAN_ELEMENT_THEORY":"SGP4","TIME_SYSTEM":"UTC","ARG_OF_PERICENTER":"280.3072"},{"ELEMENT_SET_NO":"999","RA_OF_ASC_NODE":"214.5829","CLASSIFICATION_TYPE":"U","MEAN_ANOMALY":"101.8546","NORAD_CAT_ID":"55475","OBJECT_ID":"2023-015AC","APOAPSIS":"559.987","CENTER_NAME":"EARTH","EPHEMERIS_TYPE":"0","PERIAPSIS":"558.197","REF_FRAME":"TEME","LAUNCH_DATE":"2023-02-02","DECAY_DATE":null,"OBJECT_NAME":"STARLINK-5650","COUNTRY_CODE":"US","MEAN_MOTION":"15.02532721","TLE_LINE2":"2 55475  43.0003 214.5829 0001290 258.2152 101.8546 15.02532721 14374","TLE_LINE1":"1 55475U 23015AC  23125.07811729  .00000286  00000-0  36260-4 0  9992","ECCENTRICITY":"0.00012900","MEAN_MOTION_DDOT":"0.0000000000000","EPOCH":"2023-05-05T01:52:29.333856","SITE":"AFETR","MEAN_MOTION_DOT":"0.00000286","BSTAR":"0.00003626000000","RCS_SIZE":"LARGE","FILE":"3901294","SEMIMAJOR_AXIS":"6937.227","PERIOD":"95.838","GP_ID":"231279008","ARG_OF_PERICENTER":"258.2152","TIME_SYSTEM":"UTC","INCLINATION":"43.0003","OBJECT_TYPE":"PAYLOAD","REV_AT_EPOCH":"1437","MEAN_ELEMENT_THEORY":"SGP4"},{"DECAY_DATE":null,"REF_FRAME":"TEME","LAUNCH_DATE":"2023-02-02","COUNTRY_CODE":"US","OBJECT_NAME":"STARLINK-5596","PERIAPSIS":"353.879","APOAPSIS":"356.090","MEAN_ANOMALY":"90.0556","CLASSIFICATION_TYPE":"U","NORAD_CAT_ID":"55476","OBJECT_ID":"2023-015AD","EPHEMERIS_TYPE":"0","CENTER_NAME":"EARTH","RA_OF_ASC_NODE":"192.1622","ELEMENT_SET_NO":"999","OBJECT_TYPE":"PAYLOAD","INCLINATION":"43.0029","REV_AT_EPOCH":"1464","MEAN_ELEMENT_THEORY":"SGP4","ARG_OF_PERICENTER":"270.0124","TIME_SYSTEM":"UTC","GP_ID":"231280170","PERIOD":"91.640","ECCENTRICITY":"0.00016420","TLE_LINE2":"2 55476  43.0029 192.1622 0001642 270.0124  90.0556 15.71369236 14642","TLE_LINE1":"1 55476U 23015AD  23125.23718253  .00013959  00000-0  10965-3 0  9993","MEAN_MOTION":"15.71369236","SEMIMAJOR_AXIS":"6733.120","FILE":"3901343","RCS_SIZE":"LARGE","EPOCH":"2023-05-05T05:41:32.570592","MEAN_MOTION_DDOT":"0.0000000000000","SITE":"AFETR","BSTAR":"0.00010965000000","MEAN_MOTION_DOT":"0.00013959"},{"PERIOD":"95.111","GP_ID":"231286303","EPOCH":"2023-05-05T14:00:01.000224","MEAN_MOTION_DDOT":"0.0000000000000","SITE":"AFETR","BSTAR":"-0.05132200000000","MEAN_MOTION_DOT":"-0.00881204","FILE":"3901606","SEMIMAJOR_AXIS":"6902.077","RCS_SIZE":"LARGE","TLE_LINE2":"2 55477  42.9991 200.0145 0001362 286.7340 152.5326 15.14025104 14583","TLE_LINE1":"1 55477U 23015AE  23125.58334491 -.00881204  00000-0 -51322-1 0  9998","MEAN_MOTION":"15.14025104","ECCENTRICITY":"0.00013620","MEAN_ELEMENT_THEORY":"SGP4","REV_AT_EPOCH":"1458","INCLINATION":"42.9991","OBJECT_TYPE":"PAYLOAD","ARG_OF_PERICENTER":"286.7340","TIME_SYSTEM":"UTC","CENTER_NAME":"EARTH","EPHEMERIS_TYPE":"0","CLASSIFICATION_TYPE":"U","MEAN_ANOMALY":"152.5326","NORAD_CAT_ID":"55477","OBJECT_ID":"2023-015AE","APOAPSIS":"524.882","ELEMENT_SET_NO":"999","RA_OF_ASC_NODE":"200.0145","OBJECT_NAME":"STARLINK-5685","COUNTRY_CODE":"US","REF_FRAME":"TEME","LAUNCH_DATE":"2023-02-02","DECAY_DATE":null,"PERIAPSIS":"523.002"},{"DECAY_DATE":null,"LAUNCH_DATE":"2023-02-02","REF_FRAME":"TEME","COUNTRY_CODE":"US","OBJECT_NAME":"STARLINK-5691","PERIAPSIS":"522.788","APOAPSIS":"524.585","NORAD_CAT_ID":"55478","OBJECT_ID":"2023-015AF","MEAN_ANOMALY":"167.6778","CLASSIFICATION_TYPE":"U","EPHEMERIS_TYPE":"0","CENTER_NAME":"EARTH","RA_OF_ASC_NODE":"199.9983","ELEMENT_SET_NO":"999","OBJECT_TYPE":"PAYLOAD","INCLINATION":"42.9992","MEAN_ELEMENT_THEORY":"SGP4","REV_AT_EPOCH":"1458","TIME_SYSTEM":"UTC","ARG_OF_PERICENTER":"278.3156","GP_ID":"231285629","PERIOD":"95.105","ECCENTRICITY":"0.00013020","TLE_LINE1":"1 55478U 23015AF  23125.58334491 -.00880465  00000-0 -51154-1 0  9990","TLE_LINE2":"2 55478  42.9992 199.9983 0001302 278.3156 167.6778 15.14109208 14583","MEAN_MOTION":"15.14109208","FILE":"3901575","RCS_SIZE":"LARGE","SEMIMAJOR_AXIS":"6901.821","SITE":"AFETR","MEAN_MOTION_DOT":"-0.00880465","BSTAR":"-0.05115400000000","MEAN_MOTION_DDOT":"0.0000000000000","EPOCH":"2023-05-05T14:00:01.000224"},{"APOAPSIS":"525.560","CLASSIFICATION_TYPE":"U","MEAN_ANOMALY":"145.7264","OBJECT_ID":"2023-015AG","NORAD_CAT_ID":"55479","EPHEMERIS_TYPE":"0","CENTER_NAME":"EARTH","RA_OF_ASC_NODE":"200.0548","ELEMENT_SET_NO":"999","DECAY_DATE":null,"REF_FRAME":"TEME","LAUNCH_DATE":"2023-02-02","COUNTRY_CODE":"US","OBJECT_NAME":"STARLINK-5688","PERIAPSIS":"523.788","GP_ID":"231285461","PERIOD":"95.126","ECCENTRICITY":"0.00012840","MEAN_MOTION":"15.13784258","TLE_LINE2":"2 55479  42.9984 200.0548 0001284 276.6059 145.7264 15.13784258 14588","TLE_LINE1":"1 55479U 23015AG  23125.58334491 -.00881900  00000-0 -51718-1 0  9992","SEMIMAJOR_AXIS":"6902.809","FILE":"3901575","RCS_SIZE":"LARGE","EPOCH":"2023-05-05T14:00:01.000224","MEAN_MOTION_DDOT":"0.0000000000000","SITE":"AFETR","BSTAR":"-0.05171800000000","MEAN_MOTION_DOT":"-0.00881900","OBJECT_TYPE":"PAYLOAD","INCLINATION":"42.9984","MEAN_ELEMENT_THEORY":"SGP4","REV_AT_EPOCH":"1458","ARG_OF_PERICENTER":"276.6059","TIME_SYSTEM":"UTC"}];
